{"type": "FeatureCollection", "features": [ {"type": "Feature", "properties": {"norad_id": 57401, "name": "TIANMU-1 09", "group": "weather", "lat": 46.35976934928586, "lon": 32.56029908653105, "alt_km": 473.2000105474872, "timestamp": "2025-12-17T04:57:44.047982+00:00", "meta": {"OBJECT_NAME": "TIANMU-1 09", "OBJECT_ID": "2023-101C", "EPOCH": "2025-12-16T22:28:18.924096", "MEAN_MOTION": 15.28147361, "ECCENTRICITY": 0.00066561, "INCLINATION": 97.2823, "RA_OF_ASC_NODE": 40.0024, "ARG_OF_PERICENTER": 72.4784, "MEAN_ANOMALY": 287.7183, "EPHEMERIS_TYPE": 0, "CLASSIFICATION_TYPE": "U", "NORAD_CAT_ID": 57401, "ELEMENT_SET_NO": 999, "REV_AT_EPOCH": 13379, "BSTAR": 0.00022326081, "MEAN_MOTION_DOT": 6.056e-05, "MEAN_MOTION_DDOT": 0}, "tle": {"line1": "1 57401U 23101C   25350.93633014  .00006056  00000+0  22326-3 0  9992", "line2": "2 57401  97.2823  40.0024 0006656  72.4784 287.7183 15.28147361133792"}}, "geometry": {"type": "Point", "coordinates": [32.56029908653105, 46.35976934928586]}}, {"type": "Feature", "properties": {"norad_id": 57402, "name": "TIANMU-1 10", "group": "weather", "lat": -38.52969916933576, "lon": -144.72970633646463, "alt_km": 492.79989245845627, "timestamp": "2025-12-17T04:57:44.047991+00:00", "meta": {"OBJECT_NAME": "TIANMU-1 10", "OBJECT_ID": "2023-101D", "EPOCH": "2025-12-16T23:17:36.932640", "MEAN_MOTION": 15.28139314, "ECCENTRICITY": 0.00084108, "INCLINATION": 97.2904, "RA_OF_ASC_NODE": 40.8902, "ARG_OF_PERICENTER": 71.279, "MEAN_ANOMALY": 288.9362, "EPHEMERIS_TYPE": 0, "CLASSIFICATION_TYPE": "U", "NORAD_CAT_ID": 57402, "ELEMENT_SET_NO": 999, "REV_AT_EPOCH": 13379, "BSTAR": 0.00023040843, "MEAN_MOTION_DOT": 6.253e-05, "MEAN_MOTION_DDOT": 0}, "tle": {"line1": "1 57402U 23101D   25350.97056635  .00006253  00000+0  23041-3 0  9999", "line2": "2 57402  97.2904  40.8902 0008410  71.2790 288.9362 15.28139314133791"}}, "geometry": {"type": "Point", "coordinates": [-144.72970633646463, -38.52969916933576]}}, {"type": "Feature", "properties": {"norad_id": 57490, "name": "FENGYUN 3F", "group": "weather", "lat": -1.2204639104101538, "lon": -120.7590974497621, "alt_km": 828.6314898071641, "timestamp": "2025-12-17T04:57:44.048000+00:00", "meta": {"OBJECT_NAME": "FENGYUN 3F", "OBJECT_ID": "2023-111A", "EPOCH": "2025-12-17T00:43:46.438176", "MEAN_MOTION": 14.19894686, "ECCENTRICITY": 7.08e-05, "INCLINATION": 98.7079, "RA_OF_ASC_NODE": 59.2545, "ARG_OF_PERICENTER": 108.6853, "MEAN_ANOMALY": 251.44, "EPHEMERIS_TYPE": 0, "CLASSIFICATION_TYPE": "U", "NORAD_CAT_ID": 57490, "ELEMENT_SET_NO": 999, "REV_AT_EPOCH": 12301, "BSTAR": 5.0331292e-05, "MEAN_MOTION_DOT": 6.3e-07, "MEAN_MOTION_DDOT": 0}, "tle": {"line1": "1 57490U 23111A   25351.03039859  .00000063  00000+0  50331-4 0  9990", "line2": "2 57490  98.7079  59.2545 0000708 108.6853 251.4400 14.19894686123012"}}, "geometry": {"type": "Point", "coordinates": [-120.7590974497621, -1.2204639104101538]}}, {"type": "Feature", "properties": {"norad_id": 58584, "name": "ARKTIKA-M 2", "group": "weather", "lat": 43.79211635489805, "lon": -34.57317783325945, "alt_km": 22733.03757776462, "timestamp": "2025-12-17T04:57:44.048012+00:00", "meta": {"OBJECT_NAME": "ARKTIKA-M 2", "OBJECT_ID": "2023-198A", "EPOCH": "2025-12-15T07:41:54.278304", "MEAN_MOTION": 2.00603484, "ECCENTRICITY": 0.68650912, "INCLINATION": 63.2249, "RA_OF_ASC_NODE": 174.6089, "ARG_OF_PERICENTER": 268.096, "MEAN_ANOMALY": 18.8351, "EPHEMERIS_TYPE": 0, "CLASSIFICATION_TYPE": "U", "NORAD_CAT_ID": 58584, "ELEMENT_SET_NO": 999, "REV_AT_EPOCH": 1463, "BSTAR": 0, "MEAN_MOTION_DOT": 2.02e-06, "MEAN_MOTION_DDOT": 0}, "tle": {"line1": "1 58584U 23198A   25349.32076711  .00000202  00000+0  00000+0 0  9995", "line2": "2 58584  63.2249 174.6089 6865091 268.0960  18.8351  2.00603484 14636"}}, "geometry": {"type": "Point", "coordinates": [-34.57317783325945, 43.79211635489805]}}, {"type": "Feature", "properties": {"norad_id": 58645, "name": "TIANMU-1 11", "group": "weather", "lat": -17.92271790317004, "lon": 13.148014982198871, "alt_km": 493.55905592735326, "timestamp": "2025-12-17T04:57:44.048023+00:00", "meta": {"OBJECT_NAME": "TIANMU-1 11", "OBJECT_ID": "2023-205A", "EPOCH": "2025-12-17T00:18:57.100032", "MEAN_MOTION": 15.24652888, "ECCENTRICITY": 0.00076432, "INCLINATION": 97.3603, "RA_OF_ASC_NODE": 10.5617, "ARG_OF_PERICENTER": 292.4698, "MEAN_ANOMALY": 67.573, "EPHEMERIS_TYPE": 0, "CLASSIFICATION_TYPE": "U", "NORAD_CAT_ID": 58645, "ELEMENT_SET_NO": 999, "REV_AT_EPOCH": 10974, "BSTAR": 0.00021837774, "MEAN_MOTION_DOT": 5.326e-05, "MEAN_MOTION_DDOT": 0}, "tle": {"line1": "1 58645U 23205A   25351.01316088  .00005326  00000+0  21838-3 0  9993", "line2": "2 58645  97.3603  10.5617 0007643 292.4698  67.5730 15.24652888109746"}}, "geometry": {"type": "Point", "coordinates": [13.148014982198871, -17.92271790317004]}}, {"type": "Feature", "properties": {"norad_id": 58646, "name": "TIANMU-1 12", "group": "weather", "lat": -12.27435357616465, "lon": -171.0553060391558, "alt_km": 495.95105524271275, "timestamp": "2025-12-17T04:57:44.048032+00:00", "meta": {"OBJECT_NAME": "TIANMU-1 12", "OBJECT_ID": "2023-205B", "EPOCH": "2025-12-17T00:58:13.567584", "MEAN_MOTION": 15.24537399, "ECCENTRICITY": 0.00057712, "INCLINATION": 97.359, "RA_OF_ASC_NODE": 10.3926, "ARG_OF_PERICENTER": 271.7872, "MEAN_ANOMALY": 88.2705, "EPHEMERIS_TYPE": 0, "CLASSIFICATION_TYPE": "U", "NORAD_CAT_ID": 58646, "ELEMENT_SET_NO": 999, "REV_AT_EPOCH": 10973, "BSTAR": 0.00021012656, "MEAN_MOTION_DOT": 5.102e-05, "MEAN_MOTION_DDOT": 0}, "tle": {"line1": "1 58646U 23205B   25351.04043481  .00005102  00000+0  21013-3 0  9998", "line2": "2 58646  97.3590  10.3926 0005771 271.7872  88.2705 15.24537399109737"}}, "geometry": {"type": "Point", "coordinates": [-171.0553060391558, -12.27435357616465]}}, {"type": "Feature", "properties": {"norad_id": 58647, "name": "TIANMU-1 13", "group": "weather", "lat": 8.868397382067478, "lon": 9.60285779072856, "alt_km": 496.13689892755065, "timestamp": "2025-12-17T04:57:44.048042+00:00", "meta": {"OBJECT_NAME": "TIANMU-1 13", "OBJECT_ID": "2023-205C", "EPOCH": "2025-12-17T00:11:50.836128", "MEAN_MOTION": 15.24580087, "ECCENTRICITY": 0.0006114, "INCLINATION": 97.3619, "RA_OF_ASC_NODE": 10.5637, "ARG_OF_PERICENTER": 247.6979, "MEAN_ANOMALY": 112.3611, "EPHEMERIS_TYPE": 0, "CLASSIFICATION_TYPE": "U", "NORAD_CAT_ID": 58647, "ELEMENT_SET_NO": 999, "REV_AT_EPOCH": 10972, "BSTAR": 0.00022839078, "MEAN_MOTION_DOT": 5.56e-05, "MEAN_MOTION_DDOT": 0}, "tle": {"line1": "1 58647U 23205C   25351.00822727  .00005560  00000+0  22839-3 0  9998", "line2": "2 58647  97.3619  10.5637 0006114 247.6979 112.3611 15.24580087109729"}}, "geometry": {"type": "Point", "coordinates": [9.60285779072856, 8.868397382067478]}}, {"type": "Feature", "properties": {"norad_id": 58648, "name": "TIANMU-1 14", "group": "weather", "lat": 77.79491179830727, "lon": -133.22885394874493, "alt_km": 489.0527252953698, "timestamp": "2025-12-17T04:57:44.048051+00:00", "meta": {"OBJECT_NAME": "TIANMU-1 14", "OBJECT_ID": "2023-205D", "EPOCH": "2025-12-16T23:48:00.533376", "MEAN_MOTION": 15.24563272, "ECCENTRICITY": 0.00068996, "INCLINATION": 97.355, "RA_OF_ASC_NODE": 9.8922, "ARG_OF_PERICENTER": 253.7845, "MEAN_ANOMALY": 106.2634, "EPHEMERIS_TYPE": 0, "CLASSIFICATION_TYPE": "U", "NORAD_CAT_ID": 58648, "ELEMENT_SET_NO": 999, "REV_AT_EPOCH": 10972, "BSTAR": 0.00021645101, "MEAN_MOTION_DOT": 5.263e-05, "MEAN_MOTION_DDOT": 0}, "tle": {"line1": "1 58648U 23205D   25350.99167284  .00005263  00000+0  21645-3 0  9990", "line2": "2 58648  97.3550   9.8922 0006899 253.7845 106.2634 15.24563272109726"}}, "geometry": {"type": "Point", "coordinates": [-133.22885394874493, 77.79491179830727]}}, {"type": "Feature", "properties": {"norad_id": 58660, "name": "TIANMU-1 19", "group": "weather", "lat": 47.98055327817774, "lon": 93.89690404471725, "alt_km": 480.6922289122167, "timestamp": "2025-12-17T04:57:44.048062+00:00", "meta": {"OBJECT_NAME": "TIANMU-1 19", "OBJECT_ID": "2023-208A", "EPOCH": "2025-12-16T22:27:48.172608", "MEAN_MOTION": 15.27927346, "ECCENTRICITY": 0.00042713, "INCLINATION": 97.4389, "RA_OF_ASC_NODE": 101.9647, "ARG_OF_PERICENTER": 234.0211, "MEAN_ANOMALY": 126.0633, "EPHEMERIS_TYPE": 0, "CLASSIFICATION_TYPE": "U", "NORAD_CAT_ID": 58660, "ELEMENT_SET_NO": 999, "REV_AT_EPOCH": 10946, "BSTAR": 0.00029047796, "MEAN_MOTION_DOT": 7.845e-05, "MEAN_MOTION_DDOT": 0}, "tle": {"line1": "1 58660U 23208A   25350.93597422  .00007845  00000+0  29048-3 0  9995", "line2": "2 58660  97.4389 101.9647 0004271 234.0211 126.0633 15.27927346109469"}}, "geometry": {"type": "Point", "coordinates": [93.89690404471725, 47.98055327817774]}}, {"type": "Feature", "properties": {"norad_id": 58661, "name": "TIANMU-1 20", "group": "weather", "lat": 37.657464955571044, "lon": -71.53095631414834, "alt_km": 476.9224768558024, "timestamp": "2025-12-17T04:57:44.048073+00:00", "meta": {"OBJECT_NAME": "TIANMU-1 20", "OBJECT_ID": "2023-208B", "EPOCH": "2025-12-16T22:03:39.820032", "MEAN_MOTION": 15.29117996, "ECCENTRICITY": 0.00064054, "INCLINATION": 97.4327, "RA_OF_ASC_NODE": 102.3997, "ARG_OF_PERICENTER": 248.1508, "MEAN_ANOMALY": 111.9051, "EPHEMERIS_TYPE": 0, "CLASSIFICATION_TYPE": "U", "NORAD_CAT_ID": 58661, "ELEMENT_SET_NO": 999, "REV_AT_EPOCH": 10953, "BSTAR": 0.0002820788, "MEAN_MOTION_DOT": 7.902e-05, "MEAN_MOTION_DDOT": 0}, "tle": {"line1": "1 58661U 23208B   25350.91921088  .00007902  00000+0  28208-3 0  9994", "line2": "2 58661  97.4327 102.3997 0006405 248.1508 111.9051 15.29117996109530"}}, "geometry": {"type": "Point", "coordinates": [-71.53095631414834, 37.657464955571044]}}]}